id,name,city,state,lat,long
0,NorthGate Brewing ,Minneapolis,MN,44.9772995,-93.2654692
1,Against the Grain Brewery,Louisville,KY,38.2542376,-85.759407
2,Jack's Abby Craft Lagers,Framingham,MA,42.3095704,-71.4413097
3,Mike Hess Brewing Company,San Diego,CA,32.7174202,-117.1627728
4,Fort Point Beer Company,San Francisco,CA,37.7790262,-122.419906
5,COAST Brewing Company,Charleston,SC,32.7876012,-79.9402728
6,Great Divide Brewing Company,Denver,CO,39.7348381,-104.9653271
7,Tapistry Brewing,Bridgman,MI,41.9430986,-86.5569659
8,Big Lake Brewing,Holland,MI,42.7876022,-86.1090828
9,The Mitten Brewing Company,Grand Rapids,MI,42.9632405,-85.6678639
10,Brewery Vivant,Grand Rapids,MI,42.9632405,-85.6678639
11,Petoskey Brewing,Petoskey,MI,45.373343,-84.95533
12,Blackrocks Brewery,Marquette,MI,46.4481521,-87.6305899
13,Perrin Brewing Company,Comstock Park,MI,43.0342874,-85.6655303
14,Witch's Hat Brewing Company,South Lyon,MI,42.451377,-83.659179
15,Founders Brewing Company,Grand Rapids,MI,42.9632405,-85.6678639
16,Flat 12 Bierwerks,Indianapolis,IN,39.9164009,-86.05195683
17,Tin Man Brewing Company,Evansville,IN,37.975712,-87.569908
18,Black Acre Brewing Co.,Indianapolis,IN,39.9164009,-86.05195683
19,Brew Link Brewing,Plainfield,IN,41.7092928,-71.8785123
20,Bare Hands Brewery,Granger,IN,43.151359,-77.5750507
21,Three Pints Brewing,Martinsville,IN,39.633666,-86.850781
22,Four Fathers Brewing ,Valparaiso,IN,41.478142,-87.055367
23,Indiana City Brewing,Indianapolis,IN,39.9164009,-86.05195683
24,Burn 'Em Brewing,Michigan City,IN,41.71873,-86.9009
25,Sun King Brewing Company,Indianapolis,IN,39.9164009,-86.05195683
26,Evil Czech Brewery,Mishawaka,IN,41.6611642,-86.1807031
27,450 North Brewing Company,Columbus,IN,39.730727,-82.604837
28,Taxman Brewing Company,Bargersville,IN,39.5208818,-86.1677657
29,Cedar Creek Brewery,Seven Points,TX,32.3388605,-96.23151234
30,SanTan Brewing Company,Chandler,AZ,33.3061605,-111.84125
31,Boulevard Brewing Company,Kansas City,MO,39.100105,-94.5781416
32,James Page Brewing Company,Stevens Point,WI,44.5229223,-89.574111
33,The Dudes' Brewing Company,Torrance,CA,33.8358492,-118.3406288
34,Ballast Point Brewing Company,San Diego,CA,32.7174202,-117.1627728
35,Anchor Brewing Company,San Francisco,CA,37.7790262,-122.419906
36,Figueroa Mountain Brewing Company,Buellton,CA,34.6134727,-120.1936692
37,Avery Brewing Company,Boulder,CO,40.102555,-105.3632079
38,Twisted X Brewing Company,Dripping Springs,TX,30.1902067,-98.0866781
39,Gonzo's BiggDogg Brewing,Kalamazoo,MI,42.291707,-85.5872286
40,Big Muddy Brewing,Murphysboro,IL,37.7644952,-89.3350888
41,Lost Nation Brewing,East Fairfield,VT,44.7844926,-72.8584673
42,Rising Tide Brewing Company,Portland,ME,43.6610277,-70.2548596
43,Rivertowne Brewing Company,Export,PA,40.4181235,-79.625599
44,Revolution Brewing Company,Chicago,IL,41.8755616,-87.6244212
45,Tallgrass Brewing Company,Manhattan,KS,39.1836082,-96.5716694
46,Sixpoint Craft Ales,Brooklyn,NY,40.6501038,-73.9495823
47,White Birch Brewing,Hooksett,NH,43.096972,-71.465378
48,Firestone Walker Brewing Company,Paso Robles,CA,35.6267654,-120.6912456
49,SweetWater Brewing Company,Atlanta,GA,33.7849591,-84.442163
50,Flying Mouse Brewery,Troutville,VA,41.0256177,-78.7853089
51,Upslope Brewing Company,Boulder,CO,40.102555,-105.3632079
52,Pipeworks Brewing Company,Chicago,IL,41.8755616,-87.6244212
53,Bent Brewstillery,Roseville,MN,45.0060767,-93.1566107
54,Flesk Brewing Company,Lombard,IL,41.874851,-88.019341
55,Pollyanna Brewing Company,Lemont,IL,41.6737149,-88.0016263
56,BuckleDown Brewing,Lyons,IL,41.811108,-87.8232695
57,Destihl Brewery,Bloomington,IL,40.4797828,-88.9939147
58,Summit Brewing Company,St. Paul,MN,44.9500208,-93.0949764
59,Latitude 42 Brewing Company,Portage,MI,42.2011538,-85.5800022
60,4 Hands Brewing Company,Saint Louis,MO,38.6529545,-90.24111656
61,Surly Brewing Company,Brooklyn Center,MN,45.0748543,-93.3296296
62,Against The Grain Brewery,Louisville,KY,38.2542376,-85.759407
63,Crazy Mountain Brewing Company,Edwards,CO,29.9116617,-100.3457636
64,SlapShot Brewing Company,Chicago,IL,41.8755616,-87.6244212
65,Mikerphone Brewing,Chicago,IL,41.8755616,-87.6244212
66,Freetail Brewing Company,San Antonio,TX,29.4246002,-98.4951405
67,3 Daughters Brewing,St Petersburg,FL,27.7703796,-82.6695085
68,Red Shedman Farm Brewery and Hop...,Mt. Airy,MD,39.3762145,-77.154704
69,Appalachian Mountain Brewery,Boone,NC,36.216795,-81.6745517
70,Birdsong Brewing Company,Charlotte,NC,35.2272086,-80.8430827
71,Union Craft Brewing,Baltimore,MD,39.2908816,-76.610759
72,Atwater Brewery,Detroit,MI,42.3315509,-83.0466403
73,Ale Asylum,Madison,WI,43.074761,-89.3837613
74,Two Brothers Brewing Company,Warrenville,IL,41.8179303,-88.174097
75,Bent Paddle Brewing Company,Duluth,MN,46.7729322,-92.1251218
76,Bell's Brewery,Kalamazoo,MI,42.291707,-85.5872286
77,Blue Owl Brewing,Austin,TX,30.2711286,-97.7436995
78,Speakasy Ales & Lagers,San Francisco,CA,37.7790262,-122.419906
79,Black Tooth Brewing Company,Sheridan,WY,34.28969,-119.3042
80,Hopworks Urban Brewery,Portland,OR,45.5202471,-122.6741949
81,Epic Brewing,Denver,CO,39.7348381,-104.9653271
82,New Belgium Brewing Company,Fort Collins,CO,40.5508527,-105.0668085
83,Sierra Nevada Brewing Company,Chico,CA,39.7284945,-121.8374777
84,Keweenaw Brewing Company,Houghton,MI,46.8591287,-88.7774734
85,Brewery Terra Firma,Traverse City,MI,44.7606441,-85.6165301
86,Grey Sail Brewing Company,Westerly,RI,41.452511,-75.29174
87,Kirkwood Station Brewing Company,Kirkwood,MO,38.5800713,-90.4069177
88,Goose Island Brewing Company,Chicago,IL,41.8755616,-87.6244212
89,Broad Brook Brewing LLC,East Windsor,CT,42.335451,-83.348281
90,The Lion Brewery,Wilkes-Barre,PA,41.2464824,-75.8817316
91,Madtree Brewing Company,Cincinnati,OH,39.1014537,-84.5124602
92,Jackie O's Pub & Brewery,Athens,OH,39.3289242,-82.1012479
93,Rhinegeist Brewery,Cincinnati,OH,39.1014537,-84.5124602
94,Warped Wing Brewing Company,Dayton,OH,39.7589478,-84.1916069
95,Blackrocks Brewery,Marquette,MA,46.4481521,-87.6305899
96,Catawba Valley Brewing Company,Morganton,NC,35.7454291,-81.6870837
97,Tr√∂egs Brewing Company,Hershey,PA,40.2854881,-76.6506001
98,Mission Brewery,San Diego,CA,32.7174202,-117.1627728
99,Christian Moerlein Brewing Company,Cincinnati,OH,39.1014537,-84.5124602
100,West Sixth Brewing,Lexington,KY,38.0464066,-84.4970393
101,Coastal Extreme Brewing Company,Newport,RI,41.4899827,-71.3137707
102,King Street Brewing Company,Anchorage,AK,61.2163129,-149.894852
103,Beer Works Brewery,Lowell,MA,38.82501785,-104.8252602
104,Lone Tree Brewing Company,Lone Tree,CO,41.4880775,-91.425994
105,Four String Brewing Company,Columbus,OH,39.9622601,-83.0007065
106,Glabrous Brewing Company,Pineland,ME,43.8944832,-70.24254694
107,Bonfire Brewing Company,Eagle,CO,39.6161124,-106.7172844
108,Thomas Hooker Brewing Company,Bloomfield,CT,41.830959,-72.737419
109,"Woodstock Inn, Station & Brewery",North Woodstock,NH,44.0303449,-71.6859143
110,Renegade Brewing Company,Denver,CO,39.7348381,-104.9653271
111,Mother Earth Brew Company,Vista,CA,33.2000368,-117.2425355
112,Black Market Brewing Company,Temecula,CA,33.4946353,-117.1473661
113,Vault Brewing Company,Yardley,PA,40.245664,-74.8459972
114,Jailbreak Brewing Company,Laurel,MD,39.1044123,-76.8669233
115,Smartmouth Brewing Company,Norfolk,VA,36.84616,-76.28591
116,Base Camp Brewing Co.,Portland,OR,45.5202471,-122.6741949
117,Alameda Brewing,Portland,OR,45.5202471,-122.6741949
118,Southern Star Brewing Company,Conroe,TX,30.3118769,-95.4560512
119,Steamworks Brewing Company,Durango,CO,37.282249,-107.877762
120,Horny Goat Brew Pub,Milwaukee,WI,43.0349931,-87.922497
121,Cheboygan Brewing Company,Cheboygan,MI,45.4417481,-84.4768486
122,Center of the Universe Brewing C...,Ashland,VA,46.2062319,-90.6802594
123,Ipswich Ale Brewery,Ipswich,MA,42.67991,-70.83734
124,Griffin Claw Brewing Company,Birmingham,MI,33.5206824,-86.8024326
125,Karbach Brewing Company,Houston,TX,29.7589382,-95.3676974
126,Uncle Billy's Brewery and Smokeh...,Austin,TX,30.2711286,-97.7436995
127,Deep Ellum Brewing Company,Dallas,TX,32.7762719,-96.7968559
128,Real Ale Brewing Company,Blanco,TX,30.2419274,-98.4004594
129,Straub Brewery,St Mary's,PA,41.4280432,-78.5611275
130,Shebeen Brewing Company,Wolcott,CT,42.238412,-71.1313416
131,Stevens Point Brewery,Stevens Point,WI,44.5229223,-89.574111
132,Weston Brewing Company,Weston,MO,39.4087949,-94.9031821
133,Southern Prohibition Brewing Com...,Hattiesburg,MS,31.3271189,-89.2903392
134,Minhas Craft Brewery,Monroe,WI,42.6136586,-89.58520522
135,Pug Ryan's Brewery,Dillon,CO,34.4014089,-79.3864339
136,Hops & Grains Brewing Company,Austin,TX,30.2711286,-97.7436995
137,Sietsema Orchards and Cider Mill,Ada,MI,38.8398935,-83.5051704
138,Summit Brewing Company,St Paul,MN,44.9500208,-93.0949764
139,Core Brewing & Distilling Company,Springdale,AR,36.1867442,-94.1288142
140,Independence Brewing Company,Austin,TX,30.2711286,-97.7436995
141,Cigar City Brewing Company,Tampa,FL,27.9477595,-82.458444
142,Third Street Brewhouse,Cold Spring,MN,45.4557973,-94.4288849
143,Narragansett Brewing Company,Providence,RI,41.82399,-71.412834
144,Grimm Brothers Brewhouse,Loveland,CO,40.385549,-105.0443613
145,Cisco Brewers,Nantucket,MA,41.31691145,-70.14287302
146,Angry Minnow,Hayward,WI,46.0129676,-91.4848728
147,Platform Beer Company,Cleveland,OH,41.5051613,-81.6934446
148,Odyssey Beerwerks,Arvada,CO,39.8005505,-105.0811573
149,Lonerider Brewing Company,Raleigh,NC,35.7803977,-78.6390989
150,Oakshire Brewing,Eugene,OR,44.0505054,-123.0950506
151,Fort Pitt Brewing Company,Latrobe,PA,40.317287,-79.3840301
152,Tin Roof Brewing Company,Baton Rouge,LA,30.4459596,-91.18738
153,Three Creeks Brewing,Sisters,OR,44.290948,-121.5492516
154,2 Towns Ciderhouse,Corvallis,OR,44.5645659,-123.2620435
155,Caldera Brewing Company,Ashland,OR,42.1972487,-122.7153995
156,Greenbrier Valley Brewing Company,Lewisburg,WV,37.8017879,-80.4456303
157,Phoenix Ale Brewery,Phoenix,AZ,33.4484367,-112.0741417
158,Lumberyard Brewing Company,Flagstaff,AZ,35.1816047,-111.6165953
159,Uinta Brewing Company,Salt Lake City,UT,40.7596198,-111.8867975
160,Four Peaks Brewing Company,Tempe,AZ,33.4255056,-111.9400091
161,Martin House Brewing Company,Fort Worth,TX,32.753177,-97.3327459
162,Right Brain Brewery,Traverse City,MI,44.7606441,-85.6165301
163,Sly Fox Brewing Company,Phoenixville,PA,40.1303822,-75.5149128
164,Round Guys Brewing,Lansdale,PA,40.2414952,-75.2837862
165,Great Crescent Brewery,Aurora,IN,39.05842,-84.90309
166,Oskar Blues Brewery,Longmont,CO,40.1672117,-105.1019287
167,Boxcar Brewing Company,West Chester,PA,39.9597213,-75.6059638
168,High Hops Brewery,Windsor,CO,43.59239545,-72.54867296
169,Crooked Fence Brewing Company,Garden City,ID,43.622111,-116.2381787
170,Everybody's Brewing,White Salmon,WA,45.7276194,-121.4864619
171,Anderson Valley Brewing Company,Boonville,CA,39.0091667,-123.3661111
172,Fiddlehead Brewing Company,Shelburne,VT,44.3783486,-73.2276183
173,Evil Twin Brewing,Brooklyn,NY,40.6501038,-73.9495823
174,New Orleans Lager & Ale Brewing ...,New Orleans,LA,29.9499323,-90.0701156
175,Spiteful Brewing Company,Chicago,IL,41.8755616,-87.6244212
176,Rahr & Sons Brewing Company,Fort Worth,TX,32.753177,-97.3327459
177,18th Street Brewery,Gary,IN,31.470271,-82.107662
178,Cambridge Brewing Company,Cambridge,MA,42.3750997,-71.1056157
179,Carolina Brewery,Pittsboro,NC,35.7201229,-79.1771539
180,Frog Level Brewing Company,Waynesville,NC,35.4887476,-82.9888725
181,Wild Wolf Brewing Company,Nellysford,VA,37.8904176,-78.8722444
182,COOP Ale Works,Oklahoma City,OK,35.4729886,-97.5170536
183,Seventh Son Brewing Company,Columbus,OH,39.9622601,-83.0007065
184,Oasis Texas Brewing Company,Austin,TX,30.2711286,-97.7436995
185,Vander Mill Ciders,Spring Lake,MI,40.1535132,-74.0293941
186,St. Julian Winery,Paw Paw,MI,42.2178171,-85.8911246
187,Pedernales Brewing Company,Fredericksburg,TX,30.2752011,-98.8719843
188,Mother's Brewing,Springfield,MO,37.2166779,-93.2920373
189,Modern Monks Brewery,Lincoln,NE,41.1280799,-101.1313806
190,Two Beers Brewing Company,Seattle,WA,47.6038321,-122.3300624
191,Snake River Brewing Company,Jackson,WY,43.582767,-110.821999
192,Capital Brewery,Middleton,WI,43.0962919,-89.5119565
193,Anthem Brewing Company,Oklahoma City,OK,35.4729886,-97.5170536
194,Goodlife Brewing Co.,Bend,OR,44.0581728,-121.3153096
195,Breakside Brewery,Portland,OR,45.5202471,-122.6741949
196,Goose Island Brewery Company,Chicago,IL,41.8755616,-87.6244212
197,Burnside Brewing Co.,Portland,OR,45.5202471,-122.6741949
198,Hop Valley Brewing Company,Springfield,OR,44.0462362,-123.0220289
199,Worthy Brewing Company,Bend,OR,44.0581728,-121.3153096
200,Occidental Brewing Company,Portland,OR,45.5202471,-122.6741949
201,Fearless Brewing Company,Estacada,OR,45.2864689,-122.3342596
202,Upland Brewing Company,Bloomington,IN,39.1979542,-86.54119326
203,Mehana Brewing Co.,Hilo,HI,19.7073734,-155.0815803
204,Hawai'i Nui Brewing Co.,Hilo,HI,19.7073734,-155.0815803
205,People's Brewing Company,Lafayette,IN,40.4034666,-86.8904233
206,Fort George Brewery,Astoria,OR,46.187885,-123.831256
207,Branchline Brewing Company,San Antonio,TX,29.4246002,-98.4951405
208,Kalona Brewing Company,Kalona,IA,41.4830723,-91.7060016
209,Modern Times Beer,San Diego,CA,32.7174202,-117.1627728
210,Temperance Beer Company,Evanston,IL,42.0447388,-87.6930459
211,Wisconsin Brewing Company,Verona,WI,42.9905492,-89.5335575
212,Crow Peak Brewing Company,Spearfish,SD,44.490817,-103.85937
213,Grapevine Craft Brewery,Farmers Branch,TX,32.9265137,-96.8961151
214,Buffalo Bayou Brewing Company,Houston,TX,29.7589382,-95.3676974
215,Texian Brewing Co.,Richmond,TX,29.5821811,-95.7607832
216,Orpheus Brewing,Atlanta,GA,33.7849591,-84.442163
217,Forgotten Boardwalk,Cherry Hill,NJ,39.9348351,-75.0307264
218,Laughing Dog Brewing Company,Ponderay,ID,48.3054806,-116.5338037
219,Bozeman Brewing Company,Bozeman,MT,45.6794293,-111.044047
220,Big Choice Brewing,Broomfield,CO,39.9203827,-105.0691464
221,Big Storm Brewing Company,Odessa,FL,28.183222,-82.55402792
222,Carton Brewing Company,Atlantic Highlands,NJ,40.4078865,-74.034306
223,Midnight Sun Brewing Company,Anchorage,AK,61.2163129,-149.894852
224,Fat Head's Brewery,Middleburg Heights,OH,41.3614401,-81.812912
225,Refuge Brewery,Temecula,CA,33.4946353,-117.1473661
226,Chatham Brewing,Chatham,NY,42.3642517,-73.5948391
227,DC Brau Brewing Company,Washington,DC,38.8949924,-77.0365581
228,Geneva Lake Brewing Company,Lake Geneva,WI,42.5916836,-88.4334301
229,Rochester Mills Brewing Company,Rochester,MI,44.0234387,-92.4630182
230,Cape Ann Brewing Company,Gloucester,MA,42.6159286,-70.6619888
231,Borderlands Brewing Company,Tucson,AZ,32.2228765,-110.9748477
232,College Street Brewhouse and Pub,Lake Havasu City,AZ,34.4838502,-114.3224495
233,Joseph James Brewing Company,Henderson,NV,36.0301134,-114.9826194
234,Harpoon Brewery,Boston,MA,42.3602534,-71.0582912
235,Back East Brewing Company,Bloomfield,CT,41.830959,-72.737419
236,Champion Brewing Company,Charlottesville,VA,38.031052,-78.474159
237,Devil's Backbone Brewing Company,Lexington,VA,38.0464066,-84.4970393
238,Newburgh Brewing Company,Newburgh,NY,41.5034271,-74.0104179
239,Wiseacre Brewing Company,Memphis,TN,35.1490215,-90.0516285
240,Golden Road Brewing,Los Angeles,CA,34.0536909,-118.242766
241,New Republic Brewing Company,College Station,TX,30.5955289,-96.3071042
242,Infamous Brewing Company,Austin,TX,30.2711286,-97.7436995
243,Two Henrys Brewing Company,Plant City,FL,28.01633,-82.1234803
244,Lift Bridge Brewing Company,Stillwater,MN,45.0564041,-92.8134982
245,Lucky Town Brewing Company,Jackson,MS,30.8336524,-91.1914378
246,Quest Brewing Company,Greenville,SC,34.851354,-82.3984882
247,Creature Comforts,Athens,GA,32.2105899,-95.8801625
248,Half Full Brewery,Stamford,CT,42.3813594,-83.3764016
249,Southampton Publick House,Southampton,NY,40.884267,-72.3895296
250,Chapman's Brewing,Angola,IN,41.634781,-85.003998
251,Barrio Brewing Company,Tucson,AZ,32.2228765,-110.9748477
252,Santa Cruz Mountain Brewing,Santa Cruz,CA,37.050096,-121.9905908
253,Frankenmuth Brewery,Frankenmuth,MI,43.3496398,-83.78327106
254,Meckley's Cidery,Somerset Center,MI,42.0511543,-84.4135604
255,Stillwater Artisanal Ales,Baltimore,MD,39.2908816,-76.610759
256,Finch's Beer Company,Chicago,IL,41.8755616,-87.6244212
257,South Austin Brewery,South Austin,TX,32.4669645,-98.6853471
258,Bauhaus Brew Labs,Minneapolis,MN,44.9772995,-93.2654692
259,Ozark Beer Company,Rogers,AR,36.3320197,-94.1185366
260,Mountain Town Brewing Company ,Mount Pleasant,MI,43.597646,-84.7668495
261,Otter Creek Brewing,Waterbury,VT,44.33712535,-72.75549721
262,The Brewer's Art,Baltimore,MD,39.2908816,-76.610759
263,Denver Beer Company,Denver,CO,39.7348381,-104.9653271
264,Ska Brewing Company,Durango,CO,37.282249,-107.877762
265,Tractor Brewing Company,Albuquerque,NM,35.0841034,-106.650985
266,Peak Organic Brewing Company,Portland,ME,43.6610277,-70.2548596
267,Cape Cod Beer,Hyannis,MA,41.651513,-70.2825918
268,Long Trail Brewing Company,Bridgewater Corners,VT,43.5883336,-72.6561682
269,Great Raft Brewing Company,Shreveport,LA,32.5221828,-93.7651944
270,Alaskan Brewing Company,Juneau,AK,58.3019496,-134.419734
271,Notch Brewing Company,Ipswich,MA,42.67991,-70.83734
272,The Alchemist,Waterbury,VT,44.33712535,-72.75549721
273,Three Notch'd Brewing Company,Charlottesville,VA,38.0360726,-78.49973473
274,Portside Brewery,Cleveland,OH,41.5051613,-81.6934446
275,Otter Creek Brewing,Middlebury,VT,44.0072736,-73.16330105
276,Montauk Brewing Company,Montauk,NY,41.0436298,-71.94387532
277,Indeed Brewing Company,Minneapolis,MN,44.9772995,-93.2654692
278,Berkshire Brewing Company,South Deerfield,MA,42.4773097,-72.6078667
279,Foolproof Brewing Company,Pawtucket,RI,41.878711,-71.3825558
280,Headlands Brewing Company,Mill Valley,CA,37.9060368,-122.5449763
281,Bolero Snort Brewery,Ridgefield Park,NJ,40.8570442,-74.0215285
282,Thunderhead Brewing Company,Kearney,NE,40.4906216,-98.9472344
283,Defiance Brewing Company,Hays,KS,38.8791783,-99.3267702
284,Milwaukee Brewing Company,Milwaukee,WI,43.0349931,-87.922497
285,Catawba Island Brewing,Port Clinton,OH,41.5119954,-82.9376919
286,Back Forty Beer Company,Gadsden,AL,33.566428,-86.7847569
287,Four Corners Brewing Company,Dallas,TX,32.7762719,-96.7968559
288,Saint Archer Brewery,San Diego,CA,32.7174202,-117.1627728
289,Rogue Ales,Newport,OR,44.636755,-124.053442
290,Hale's Ales,Seattle,WA,47.6038321,-122.3300624
291,Tommyknocker Brewery,Idaho Springs,CO,39.74622155,-105.510091
292,Baxter Brewing Company,Lewiston,ME,44.100351,-70.2147764
293,Northampton Brewery,Northamtpon,MA,42.32316537,-72.65466405
294,Black Shirt Brewing Company,Denver,CO,39.7348381,-104.9653271
295,Wachusett Brewing Company,Westminster,MA,42.545441,-71.911972
296,Widmer Brothers Brewing Company,Portland,OR,45.5202471,-122.6741949
297,Hop Farm Brewing Company,Pittsburgh,PA,40.4416941,-79.9900861
298,Liquid Hero Brewery,York,PA,39.962398,-76.727392
299,Matt Brewing Company,Utica,NY,43.1009031,-75.2326641
300,Boston Beer Company,Boston,MA,42.3602534,-71.0582912
301,Old Forge Brewing Company,Danville,PA,40.9664806,-76.6131474
302,Utah Brewers Cooperative,Salt Lake City,UT,40.7596198,-111.8867975
303,Magic Hat Brewing Company,South Burlington,VT,44.4669941,-73.1709604
304,Blue Hills Brewery,Canton,MA,42.158932,-71.144958
305,Night Shift Brewing,Everett,MA,42.40843,-71.0536625
306,Beach Brewing Company,Virginia Beach,VA,36.8529841,-75.9774183
307,Payette Brewing Company,Garden City,ID,43.622111,-116.2381787
308,Brew Bus Brewing,Tampa,FL,27.9477595,-82.458444
309,Sockeye Brewing Company,Boise,ID,43.6166163,-116.200886
310,Pine Street Brewery,San Francisco,CA,37.7790262,-122.419906
311,Dirty Bucket Brewing Company,Woodinville,WA,47.7545827,-122.1588902
312,Jackalope Brewing Company,Nashville,TN,36.2206081,-86.69563733
313,Slanted Rock Brewing Company,Meridian,ID,43.6086295,-116.392326
314,Piney River Brewing Company,Bucryus,MO,37.34914,-90.94179
315,Cutters Brewing Company,Avon,IN,42.8545435,-77.701637
316,Iron Hill Brewery & Restaurant,Wilmington,DE,39.7459468,-75.546589
317,Marshall Wharf Brewing Company,Belfast,ME,44.4261194,-69.0067359
318,Banner Beer Company,Williamsburg,MA,37.2708788,-76.7074042
319,Dick's Brewing Company,Centralia,WA,46.7204489,-122.9614303
320,Claremont Craft Ales,Claremont,CA,34.0966764,-117.7197785
321,Rivertown Brewing Company,Lockland,OH,39.2292249,-84.4577201
322,Voodoo Brewery,Meadville,PA,41.641445,-80.151449
323,D.L. Geary Brewing Company,Portland,ME,43.6610277,-70.2548596
324,Pisgah Brewing Company,Black Mountain,NC,35.6122025,-82.3316874
325,Neshaminy Creek Brewing Company,Croydon,PA,40.0873329,-74.9034996
326,Morgan Street Brewery,Saint Louis,MO,38.6529545,-90.24111656
327,Half Acre Beer Company,Chicago,IL,41.8755616,-87.6244212
328,The Just Beer Project,Burlington,VT,44.4761601,-73.212906
329,The Bronx Brewery,Bronx,NY,40.8466508,-73.8785937
330,Dead Armadillo Craft Brewing,Tulsa,OK,36.1556805,-95.9929113
331,Catawba Brewing Company,Morganton,NC,35.7454291,-81.6870837
332,La Cumbre Brewing Company,Albuquerque,NM,35.0841034,-106.650985
333,David's Ale Works,Diamond Springs,CA,38.6798266,-120.8211942
334,The Traveler Beer Company,Burlington,VT,44.4761601,-73.212906
335,Fargo Brewing Company,Fargo,ND,46.877229,-96.789821
336,Big Sky Brewing Company,Missoula,MT,46.8701049,-113.995267
337,Nebraska Brewing Company,Papillion,NE,41.1544433,-96.0422378
338,Uncle John's Fruit House Winery,St. John's,MI,29.9032284,-81.4145468
339,Wormtown Brewery,Worcester,MA,42.2625621,-71.8018877
340,Due South Brewing Company,Boynton Beach,FL,26.5256179,-80.0666026
341,Palisade Brewing Company,Palisade,CO,46.7132862,-93.4885687
342,KelSo Beer Company,Brooklyn,NY,40.6501038,-73.9495823
343,Hardywood Park Craft Brewery,Richmond,VA,37.54076,-77.433929
344,Wolf Hills Brewing Company,Abingdon,VA,36.70908,-81.976959
345,Lavery Brewing Company,Erie,PA,42.1294712,-80.0852695
346,Manzanita Brewing Company,Santee,CA,32.8383828,-116.9739167
347,Fullsteam Brewery,Durham,NC,35.996653,-78.9018053
348,Four Horsemen Brewing Company,South Bend,IN,38.622348,-105.518825
349,Hinterland Brewery,Green Bay,WI,44.5126379,-88.0125794
350,Central Coast Brewing Company,San Luis Obispo,CA,35.3540209,-120.3757163
351,Westfield River Brewing Company,Westfield,MA,42.1390327,-72.7584859
352,Elevator Brewing Company,Columbus,OH,39.9622601,-83.0007065
353,Aslan Brewing Company,Bellingham,WA,48.7544012,-122.4788361
354,Kulshan Brewery,Bellingham,WA,48.7544012,-122.4788361
355,Pikes Peak Brewing Company,Monument,CO,39.091579,-104.86824
356,Manayunk Brewing Company,Philadelphia,PA,39.9527237,-75.1635262
357,Buckeye Brewing,Cleveland,OH,41.5051613,-81.6934446
358,Daredevil Brewing Company,Shelbyville,IN,39.5248915,-85.77725577
359,NoDa Brewing Company,Charlotte,NC,35.2272086,-80.8430827
360,Aviator Brewing Company,Fuquay-Varina,NC,35.5843849,-78.7998691
361,Wild Onion Brewing Company,Lake Barrington,IL,42.212614,-88.16715437
362,Hilliard's Beer,Seattle,WA,47.6038321,-122.3300624
363,Mikkeller,Pottstown,PA,40.2452976,-75.6496424
364,Bohemian Brewery,Midvale,UT,40.6110589,-111.8999353
365,Great River Brewery,Davenport,IA,41.5236436,-90.5776368
366,Mustang Brewing Company,Mustang,OK,35.384227,-97.7244813
367,Airways Brewing Company,Kent,WA,47.3826903,-122.2270272
368,21st Amendment Brewery,San Francisco,CA,37.7790262,-122.419906
369,Eddyline Brewery & Restaurant,Buena Vista,CO,42.7445814,-95.1127525
370,Pizza Port Brewing Company,Carlsbad,CA,33.1580933,-117.3505966
371,Sly Fox Brewing Company,Pottstown,PA,40.2452976,-75.6496424
372,Spring House Brewing Company,Conestoga,PA,39.9406555,-76.3463493
373,7venth Sun,Dunedin,FL,28.0197404,-82.7717684
374,Astoria Brewing Company,Astoria,OR,46.187885,-123.831256
375,Maui Brewing Company,Lahaina,HI,20.88717735,-156.6748024
376,RoughTail Brewing Company,Midwest City,OK,35.4495097,-97.3967025
377,Lucette Brewing Company,Menominee,WI,43.8991414,-89.9858018
378,Bold City Brewery,Jacksonville,FL,30.3321838,-81.655651
379,Grey Sail Brewing of Rhode Island,Westerly,RI,41.452511,-75.29174
380,Blue Blood Brewing Company,Lincoln,NE,41.1280799,-101.1313806
381,Swashbuckler Brewing Company,Manheim,PA,40.1637359,-76.3952429
382,Blue Mountain Brewery,Afton,VA,37.96312,-78.83654
383,Starr Hill Brewery,Crozet,VA,38.07132,-78.699432
384,Westbrook Brewing Company,Mt. Pleasant,SC,32.7940651,-79.8625851
385,Shipyard Brewing Company,Portland,ME,43.6610277,-70.2548596
386,Revolution Brewing,Paonia,CO,38.8683205,-107.5920018
387,Natian Brewery,Portland,OR,45.5202471,-122.6741949
388,Alltech's Lexington Brewing Company,Lexington,KY,38.0464066,-84.4970393
389,Oskar Blues Brewery (North Carol...,Brevard,NC,35.2334472,-82.7342919
390,Orlison Brewing Company,Airway Heights,WA,47.644611,-117.5932728
391,Breckenridge Brewery,Denver,CO,39.7348381,-104.9653271
392,Santa Fe Brewing Company,Santa Fe,NM,35.6876096,-105.9384569
393,Miami Brewing Company,Miami,FL,25.7741728,-80.19362
394,Schilling & Company,Seattle,WA,47.6038321,-122.3300624
395,Hops & Grain Brewery,Austin,TX,30.2711286,-97.7436995
396,White Flame Brewing Company,Hudsonville,MI,42.870889,-85.865235
397,Ruhstaller Beer Company,Sacramento,CA,38.5810606,-121.493895
398,Saugatuck Brewing Company,Douglas,MI,45.9340479,-95.4627651
399,Moab Brewery,Moab,UT,38.5738096,-109.5462146
400,Macon Beer Company,Macon,GA,39.8333574,-88.8637186
401,Amnesia Brewing Company,Washougal,WA,45.5819594,-122.3479921
402,Wolverine State Brewing Company,Ann Arbor,MI,42.2681569,-83.7312291
403,Red Tank Cider Company,Bend,OR,44.0581728,-121.3153096
404,Cascadia Ciderworks United,Portland,OR,45.5202471,-122.6741949
405,Fate Brewing Company,Boulder,CO,40.102555,-105.3632079
406,Lazy Monk Brewing,Eau Claire,WI,44.811349,-91.4984941
407,Bitter Root Brewing,Hamilton,MT,39.0948316,-84.63803736
408,10 Barrel Brewing Company,Bend,OR,44.0581728,-121.3153096
409,Tamarack Brewing Company,Lakeside,MT,42.6213691,-95.1733278
410,New England Brewing Company,Woodbridge,CT,41.35297,-73.014343
411,Seattle Cider Company,Seattle,WA,47.6038321,-122.3300624
412,Straight to Ale,Huntsville,AL,33.555983,-86.803714
413,Austin Beerworks,Austin,TX,30.2711286,-97.7436995
414,Blue Mountain Brewery,Arrington,VA,37.683529,-78.901878
415,Coastal Empire Beer Company,Savannah,GA,32.080898,-81.091202
416,Jack's Hard Cider (Hauser Estate...,Biglerville,PA,39.9303777,-77.2482712
417,Boulder Beer Company,Boulder,CO,40.102555,-105.3632079
418,Coalition Brewing Company,Portland,OR,45.5202471,-122.6741949
419,Sanitas Brewing Company,Boulder,CO,40.102555,-105.3632079
420,Gore Range Brewery,Edwards,CO,29.9116617,-100.3457636
421,Redstone Meadery,Boulder,CO,40.102555,-105.3632079
422,Blue Dog Mead,Eugene,OR,44.0505054,-123.0950506
423,Hess Brewing Company,San Diego,CA,32.7174202,-117.1627728
424,Wynkoop Brewing Company,Denver,CO,39.7348381,-104.9653271
425,Ciderboys,Stevens Point,WI,44.5229223,-89.574111
426,Armadillo Ale Works,Denton,TX,33.1838787,-97.1413417
427,Roanoke Railhouse Brewery,Roanoke,VA,37.270973,-79.9414313
428,Schlafly Brewing Company,Saint Louis,MO,38.6529545,-90.24111656
429,Asher Brewing Company,Boulder,CO,40.102555,-105.3632079
430,Lost Rhino Brewing Company,Ashburn,VA,41.736511,-87.7059404
431,North Country Brewing Company,Slippery Rock,PA,41.0639506,-80.0564468
432,Seabright Brewery,Santa Cruz,CA,37.050096,-121.9905908
433,French Broad Brewery,Asheville,NC,35.6009498,-82.5540161
434,Angry Orchard Cider Company,Cincinnati,OH,39.1014537,-84.5124602
435,Two Roads Brewing Company,Stratford,CT,35.83343785,-78.64802138
436,Southern Oregon Brewing Company,Medford,OR,42.3264181,-122.8718605
437,Brooklyn Brewery,Brooklyn,NY,40.6501038,-73.9495823
438,The Right Brain Brewery,Traverse City,MI,44.7606441,-85.6165301
439,Kona Brewing Company,Kona,HI,19.6472213,-155.9966428
440,MillKing It Productions,Royal Oak,MI,42.4894801,-83.1446485
441,Pateros Creek Brewing Company,Fort Collins,CO,40.5508527,-105.0668085
442,O'Fallon Brewery,O'Fallon,MO,38.7910374,-90.7039107
443,Marble Brewery,Albuquerque,NM,35.0841034,-106.650985
444,Big Wood Brewery,Vadnais Heights,MN,45.0574659,-93.0738306
445,Howard Brewing Company,Lenoir,NC,35.9140196,-81.5389849
446,Downeast Cider House,Leominster,MA,42.5267443,-71.7614891
447,Swamp Head Brewery,Gainesville,FL,29.6519684,-82.3249846
448,Mavericks Beer Company,Half Moon Bay,CA,37.4635519,-122.428586
449,TailGate Beer,San Diego,CA,32.7174202,-117.1627728
450,Northwest Brewing Company,Pacific,WA,47.2640129,-122.2485492
451,Dad & Dude's Breweria,Aurora,CO,43.6963371,-98.5722461
452,Centennial Beer Company,Edwards,CO,29.9116617,-100.3457636
453,Denali Brewing Company,Talkeetna,AK,62.267644,-150.0295288
454,Deschutes Brewery,Bend,OR,44.0581728,-121.3153096
455,Sunken City Brewing Company,Hardy,VA,37.07619,-76.68438
456,Lucette Brewing Company,Menominie,WI,42.5458427,-90.6030228
457,The Black Tooth Brewing Company,Sheridan,WY,34.28969,-119.3042
458,Kenai River Brewing Company,Soldotna,AK,60.4847228,-151.0653495
459,River North Brewery,Denver,CO,39.7348381,-104.9653271
460,Fremont Brewing Company,Seattle,WA,47.6038321,-122.3300624
461,Armstrong Brewing Company,South San Francisco,CA,37.6535403,-122.4168664
462,AC Golden Brewing Company,Golden,CO,39.749668,-105.216019
463,Big Bend Brewing Company,Alpine,TX,30.3573802,-103.6609367
464,Good Life Brewing Company,Bend,OR,44.0581728,-121.3153096
465,Engine 15 Brewing,Jacksonville Beach,FL,30.2946859,-81.3931396
466,Green Room Brewing,Jacksonville,FL,30.3321838,-81.655651
467,Brindle Dog Brewing Company,Tampa Bay,FL,27.6886419,-82.5723193
468,Peace Tree Brewing Company,Knoxville,IA,41.3208297,-93.1093708
469,Terrapin Brewing Company,Athens,GA,32.2105899,-95.8801625
470,Pete's Brewing Company,San Antonio,TX,29.4246002,-98.4951405
471,Okoboji Brewing Company,Spirit Lake,IA,43.4221843,-95.1022169
472,Crystal Springs Brewing Company,Boulder,CO,40.102555,-105.3632079
473,Engine House 9,Tacoma,WA,47.2495798,-122.4398746
474,Tonka Beer Company,Minnetonka,MN,44.9405086,-93.4638936
475,Red Hare Brewing Company,Marietta,GA,33.9528472,-84.5496148
476,Hangar 24 Craft Brewery,Redlands,CA,34.0550328,-117.1827445
477,Big Elm Brewing,Sheffield,MA,42.110729,-73.353073
478,Good People Brewing Company,Birmingham,AL,33.570499,-86.765783
479,Heavy Seas Beer,Halethorpe,MD,39.2398292,-76.6802471
480,Telluride Brewing Company,Telluride,CO,37.9374939,-107.8122852
481,7 Seas Brewing Company,Gig Harbor,WA,47.3259697,-122.5878659
482,Confluence Brewing Company,Des Moines,IA,41.5910323,-93.6046655
483,Bale Breaker Brewing Company,Yakima,WA,46.601557,-120.5108421
484,The Manhattan Brewing Company,New York,NY,40.7127281,-74.0060152
485,MacTarnahans Brewing Company,Portland,OR,45.5202471,-122.6741949
486,Stillmank Beer Company,Green Bay,WI,44.5126379,-88.0125794
487,Redhook Brewery,Woodinville,WA,47.7545827,-122.1588902
488,Dock Street Brewery,Philadelphia,PA,39.9527237,-75.1635262
489,Blue Point Brewing Company,Patchogue,NY,40.7656539,-73.0151084
490,Tampa Bay Brewing Company,Tampa,FL,27.9477595,-82.458444
491,Devil's Canyon Brewery,Belmont,CA,37.5164926,-122.2941914
492,Stone Coast Brewing Company,Portland,ME,43.6610277,-70.2548596
493,Broken Tooth Brewing Company,Anchorage,AK,61.2163129,-149.894852
494,Seven Brides Brewery,Silverton,OR,45.0049305,-122.7832947
495,Newburyport Brewing Company,Newburyport,MA,42.8125913,-70.8772751
496,Dry Dock Brewing Company,Aurora,CO,43.6963371,-98.5722461
497,Cans Bar and Canteen,Charlotte,NC,35.2272086,-80.8430827
498,Sprecher Brewing Company,Glendale,WI,43.1352881,-87.9356423
499,Wildwood Brewing Company,Stevensville,MT,46.5078975,-114.0908474
500,High Noon Saloon And Brewery,Leavenworth,KS,39.345184,-94.921703
501,Woodchuck Hard Cider,Middlebury,VT,44.0072736,-73.16330105
502,Sea Dog Brewing Company,Portland,ME,43.6610277,-70.2548596
503,Oskar Blues Brewery,Lyons,CO,41.811108,-87.8232695
504,Carolina Beer & Beverage,Mooresville,NC,35.5848596,-80.8100724
505,Krebs Brewing Company (Pete's Pl...,Krebs,OK,34.9278748,-95.7158221
506,Warbird Brewing Company,Fort Wayne,IN,41.077469,-85.137489
507,Mudshark Brewing Company,Lake Havasu City,AZ,34.4838502,-114.3224495
508,Spilker Ales,Cortland,NE,42.6011813,-76.1804843
509,Wingman Brewers,Tacoma,WA,47.2495798,-122.4398746
510,Kettle House Brewing Company,Missoula,MT,46.8701049,-113.995267
511,Sherwood Forest Brewers,Marlborough,MA,42.3459271,-71.5522874
512,Cottrell Brewing,Pawcatuck,CT,38.2931688,-122.0102739
513,Arctic Craft Brewery,Colorado Springs,CO,38.8339578,-104.8253485
514,Monkey Paw Pub & Brewery,San Diego,CA,32.7174202,-117.1627728
515,Crabtree Brewing Company,Greeley,CO,38.4570355,-101.8185007
516,Emerald City Beer Company,Seattle,WA,47.6038321,-122.3300624
517,Butcher's Brewing,Carlsbad,CA,33.1580933,-117.3505966
518,New South Brewing Company,Myrtle Beach,SC,33.6956461,-78.8900409
519,Big River Brewing Company,Chattanooga,TN,35.0457219,-85.3094883
520,Twisted Pine Brewing Company,Boulder,CO,40.102555,-105.3632079
521,Flying Dog Brewery,Frederick,MD,39.4142186,-77.4109269
522,Uncommon Brewers,Santa Cruz,CA,37.050096,-121.9905908
523,Aspen Brewing Company,Aspen,CO,39.19067,-106.819199
524,Triangle Brewing Company,Durham,NC,35.996653,-78.9018053
525,Bomb Beer Company,New York,NY,40.7127281,-74.0060152
526,Churchkey Can Company,Seattle,WA,47.6038321,-122.3300624
527,Intuition Ale Works,Jacksonville,FL,30.3321838,-81.655651
528,Asheville Brewing Company,Asheville,NC,35.6009498,-82.5540161
529,Northwoods Brewpub,Eau Claire,WI,44.811349,-91.4984941
530,Buckbean Brewing Company,Reno,NV,39.5261206,-119.8126581
531,Dolores River Brewery,Dolores,CO,37.7524811,-108.4596087
532,Flat Rock Brewing Company,Smithton,PA,40.1539613,-79.7411535
533,Abita Brewing Company,Abita Springs,LA,30.4785257,-90.0375755
534,Mammoth Brewing Company,Mammoth Lakes,CA,37.6432525,-118.9668509
535,Harvest Moon Brewing Company,Belt,MT,47.38793,-110.92743
536,Grand Canyon Brewing Company,Williams,AZ,35.2503394,-112.1869481
537,Lewis and Clark Brewing Company,Helena,MT,46.5927425,-112.036277
538,Dundee Brewing Company,Rochester,NY,43.157285,-77.615214
539,Twin Lakes Brewing Company,Greenville,DE,34.851354,-82.3984882
540,Mother Earth Brewing Company,Kinston,NC,35.2626635,-77.5816353
541,Arcadia Brewing Company,Battle Creek,MI,42.3192548,-85.1824269
542,Angry Minnow Brewing Company,Hayward,WI,46.0129676,-91.4848728
543,Great Northern Brewing Company,Whitefish,MT,48.4108018,-114.334624
544,Pyramid Breweries,Seattle,WA,47.6038321,-122.3300624
545,Lancaster Brewing Company,Lancaster,PA,40.03813,-76.3056686
546,Upstate Brewing Company,Elmira,NY,42.0897965,-76.8077338
547,Moat Mountain Smoke House & Brew...,North Conway,NH,44.0537103,-71.1282572
548,Prescott Brewing Company,Prescott,AZ,34.5399962,-112.4687616
549,Mogollon Brewing Company,Flagstaff,AZ,35.1816047,-111.6165953
550,Wind River Brewing Company,Pinedale,WY,33.366672,-86.84615
551,Silverton Brewery,Silverton,CO,34.4713299,-101.3046544
552,Mickey Finn's Brewery,Libertyville,IL,40.9575203,-92.0512863
553,Covington Brewhouse,Covington,LA,31.196549,-86.4597236
554,Dave's Brewfarm,Wilson,WI,44.9535753,-92.1735179
555,Ukiah Brewing Company,Ukiah,CA,39.1501662,-123.2077861
556,Butternuts Beer and Ale,Garrattsville,NY,42.6472968,-75.1718306
557,Sleeping Lady Brewing Company,Anchorage,AK,61.2163129,-149.894852
